{
  "type": "FeatureCollection",
  "features": [
    {
      "type": "Feature",
      "properties": {
        "norad_id": 29857,
        "name": "FENGYUN 1C DEB",
        "group": "fengyun-1c-debris",
        "lat": -5.949467308394262,
        "lon": 0.957268144691552,
        "alt_km": 928.9132611091727,
        "timestamp": "2025-12-19T10:50:01.472817+00:00",
        "meta_object_name": "FENGYUN 1C DEB",
        "meta_object_id": "1999-025FB",
        "meta_epoch": "2025-12-18T22:41:55.672800",
        "meta_mean_motion": 13.81902262,
        "meta_eccentricity": 0.01927343,
        "meta_inclination": 98.4222,
        "meta_ra_of_asc_node": 359.6206,
        "meta_arg_of_pericenter": 277.417,
        "meta_mean_anomaly": 80.5124,
        "meta_ephemeris_type": 0,
        "meta_classification_type": "U",
        "meta_norad_cat_id": 29857,
        "meta_element_set_no": 999,
        "meta_rev_at_epoch": 94861,
        "meta_bstar": 0.0012820564,
        "meta_mean_motion_dot": 1.545e-05,
        "meta_mean_motion_ddot": 0,
        "tle_line1": "1 29857U 99025FB  25352.94578325  .00001545  00000+0  12821-2 0  9996",
        "tle_line2": "2 29857  98.4222 359.6206 0192734 277.4170  80.5124 13.81902262948617"
      },
      "geometry": {
        "type": "Point",
        "coordinates": [
          0.957268144691552,
          -5.949467308394262
        ]
      }
    },
    {
      "type": "Feature",
      "properties": {
        "norad_id": 29858,
        "name": "FENGYUN 1C DEB",
        "group": "fengyun-1c-debris",
        "lat": 22.08607752582823,
        "lon": -81.34086505612285,
        "alt_km": 1020.8844493406768,
        "timestamp": "2025-12-19T10:50:01.472828+00:00",
        "meta_object_name": "FENGYUN 1C DEB",
        "meta_object_id": "1999-025FC",
        "meta_epoch": "2025-12-18T19:00:45.604800",
        "meta_mean_motion": 13.77800966,
        "meta_eccentricity": 0.01979476,
        "meta_inclination": 99.2131,
        "meta_ra_of_asc_node": 94.2433,
        "meta_arg_of_pericenter": 48.2645,
        "meta_mean_anomaly": 79.1128,
        "meta_ephemeris_type": 0,
        "meta_classification_type": "U",
        "meta_norad_cat_id": 29858,
        "meta_element_set_no": 999,
        "meta_rev_at_epoch": 94637,
        "meta_bstar": 0.00085355304,
        "meta_mean_motion_dot": 9.45e-06,
        "meta_mean_motion_ddot": 0,
        "tle_line1": "1 29858U 99025FC  25352.79219450  .00000945  00000+0  85355-3 0  9997",
        "tle_line2": "2 29858  99.2131  94.2433 0197947  48.2645  79.1128 13.77800966946374"
      },
      "geometry": {
        "type": "Point",
        "coordinates": [
          -81.34086505612285,
          22.08607752582823
        ]
      }
    },
    {
      "type": "Feature",
      "properties": {
        "norad_id": 29859,
        "name": "FENGYUN 1C DEB",
        "group": "fengyun-1c-debris",
        "lat": -17.32923235519919,
        "lon": -170.05343334629444,
        "alt_km": 1171.5025940377882,
        "timestamp": "2025-12-19T10:50:01.472837+00:00",
        "meta_object_name": "FENGYUN 1C DEB",
        "meta_object_id": "1999-025FD",
        "meta_epoch": "2025-12-18T12:12:14.507136",
        "meta_mean_motion": 13.74065376,
        "meta_eccentricity": 0.02946517,
        "meta_inclination": 98.3353,
        "meta_ra_of_asc_node": 186.5006,
        "meta_arg_of_pericenter": 197.3727,
        "meta_mean_anomaly": 161.7174,
        "meta_ephemeris_type": 0,
        "meta_classification_type": "U",
        "meta_norad_cat_id": 29859,
        "meta_element_set_no": 999,
        "meta_rev_at_epoch": 94059,
        "meta_bstar": 0.0017578379,
        "meta_mean_motion_dot": 2.225e-05,
        "meta_mean_motion_ddot": 0,
        "tle_line1": "1 29859U 99025FD  25352.50850124  .00002225  00000+0  17578-2 0  9990",
        "tle_line2": "2 29859  98.3353 186.5006 0294651 197.3727 161.7174 13.74065376940591"
      },
      "geometry": {
        "type": "Point",
        "coordinates": [
          -170.05343334629444,
          -17.32923235519919
        ]
      }
    },
    {
      "type": "Feature",
      "properties": {
        "norad_id": 29860,
        "name": "FENGYUN 1C DEB",
        "group": "fengyun-1c-debris",
        "lat": -24.181848123237838,
        "lon": -157.15617731830346,
        "alt_km": 1058.3460988423576,
        "timestamp": "2025-12-19T10:50:01.472847+00:00",
        "meta_object_name": "FENGYUN 1C DEB",
        "meta_object_id": "1999-025FE",
        "meta_epoch": "2025-12-18T15:15:51.886080",
        "meta_mean_motion": 13.77559532,
        "meta_eccentricity": 0.02211604,
        "meta_inclination": 98.6172,
        "meta_ra_of_asc_node": 26.0077,
        "meta_arg_of_pericenter": 327.2862,
        "meta_mean_anomaly": 157.7817,
        "meta_ephemeris_type": 0,
        "meta_classification_type": "U",
        "meta_norad_cat_id": 29860,
        "meta_element_set_no": 999,
        "meta_rev_at_epoch": 94220,
        "meta_bstar": 0.0019399215,
        "meta_mean_motion_dot": 2.277e-05,
        "meta_mean_motion_ddot": 0,
        "tle_line1": "1 29860U 99025FE  25352.63601720  .00002277  00000+0  19399-2 0  9992",
        "tle_line2": "2 29860  98.6172  26.0077 0221160 327.2862 157.7817 13.77559532942204"
      },
      "geometry": {
        "type": "Point",
        "coordinates": [
          -157.15617731830346,
          -24.181848123237838
        ]
      }
    },
    {
      "type": "Feature",
      "properties": {
        "norad_id": 29865,
        "name": "FENGYUN 1C DEB",
        "group": "fengyun-1c-debris",
        "lat": -42.49188857531279,
        "lon": -86.75129700548864,
        "alt_km": 705.5920167071845,
        "timestamp": "2025-12-19T10:50:01.472857+00:00",
        "meta_object_name": "FENGYUN 1C DEB",
        "meta_object_id": "1999-025FK",
        "meta_epoch": "2025-12-18T17:20:53.774304",
        "meta_mean_motion": 14.82656536,
        "meta_eccentricity": 0.01165744,
        "meta_inclination": 98.9212,
        "meta_ra_of_asc_node": 264.1631,
        "meta_arg_of_pericenter": 122.4736,
        "meta_mean_anomaly": 268.4271,
        "meta_ephemeris_type": 0,
        "meta_classification_type": "U",
        "meta_norad_cat_id": 29865,
        "meta_element_set_no": 999,
        "meta_rev_at_epoch": 847,
        "meta_bstar": 0.00047578538,
        "meta_mean_motion_dot": 4.248e-05,
        "meta_mean_motion_ddot": 0,
        "tle_line1": "1 29865U 99025FK  25352.72284461  .00004248  00000+0  47579-3 0  9998",
        "tle_line2": "2 29865  98.9212 264.1631 0116574 122.4736 268.4271 14.82656536  8470"
      },
      "geometry": {
        "type": "Point",
        "coordinates": [
          -86.75129700548864,
          -42.49188857531279
        ]
      }
    },
    {
      "type": "Feature",
      "properties": {
        "norad_id": 29866,
        "name": "FENGYUN 1C DEB",
        "group": "fengyun-1c-debris",
        "lat": 2.5390970975993357,
        "lon": -21.331826833805472,
        "alt_km": 817.057410741575,
        "timestamp": "2025-12-19T10:50:01.472867+00:00",
        "meta_object_name": "FENGYUN 1C DEB",
        "meta_object_id": "1999-025FL",
        "meta_epoch": "2025-12-18T21:50:32.485344",
        "meta_mean_motion": 14.6423413,
        "meta_eccentricity": 0.01947332,
        "meta_inclination": 98.0376,
        "meta_ra_of_asc_node": 338.4985,
        "meta_arg_of_pericenter": 195.3276,
        "meta_mean_anomaly": 195.2677,
        "meta_ephemeris_type": 0,
        "meta_classification_type": "U",
        "meta_norad_cat_id": 29866,
        "meta_element_set_no": 999,
        "meta_rev_at_epoch": 417,
        "meta_bstar": 0.00018576563,
        "meta_mean_motion_dot": 1.232e-05,
        "meta_mean_motion_ddot": 0,
        "tle_line1": "1 29866U 99025FL  25352.91009821  .00001232  00000+0  18577-3 0  9991",
        "tle_line2": "2 29866  98.0376 338.4985 0194733 195.3276 195.2677 14.64234130  4173"
      },
      "geometry": {
        "type": "Point",
        "coordinates": [
          -21.331826833805472,
          2.5390970975993357
        ]
      }
    },
    {
      "type": "Feature",
      "properties": {
        "norad_id": 29868,
        "name": "FENGYUN 1C DEB",
        "group": "fengyun-1c-debris",
        "lat": -4.796822769193917,
        "lon": -141.55861034552746,
        "alt_km": 764.401604469932,
        "timestamp": "2025-12-19T10:50:01.472878+00:00",
        "meta_object_name": "FENGYUN 1C DEB",
        "meta_object_id": "1999-025FN",
        "meta_epoch": "2025-12-18T19:36:57.661920",
        "meta_mean_motion": 14.784998,
        "meta_eccentricity": 0.01960798,
        "meta_inclination": 97.9494,
        "meta_ra_of_asc_node": 38.4867,
        "meta_arg_of_pericenter": 344.3715,
        "meta_mean_anomaly": 68.3524,
        "meta_ephemeris_type": 0,
        "meta_classification_type": "U",
        "meta_norad_cat_id": 29868,
        "meta_element_set_no": 999,
        "meta_rev_at_epoch": 385,
        "meta_bstar": 0.00054216327,
        "meta_mean_motion_dot": 5.409e-05,
        "meta_mean_motion_ddot": 0,
        "tle_line1": "1 29868U 99025FN  25352.81733405  .00005409  00000+0  54216-3 0  9994",
        "tle_line2": "2 29868  97.9494  38.4867 0196079 344.3715  68.3524 14.78499800  3856"
      },
      "geometry": {
        "type": "Point",
        "coordinates": [
          -141.55861034552746,
          -4.796822769193917
        ]
      }
    }
  ]
}